[{"OBJECT_NAME":"OBJECT A","OBJECT_ID":"2023-085A","EPOCH":"2026-03-09T21:42:39.504096","MEAN_MOTION":15.28003151,"ECCENTRICITY":0.00073195,"INCLINATION":97.4858,"RA_OF_ASC_NODE":178.2033,"ARG_OF_PERICENTER":32.2499,"MEAN_ANOMALY":327.9186,"EPHEMERIS_TYPE":0,"CLASSIFICATION_TYPE":"U","NORAD_CAT_ID":57004,"ELEMENT_SET_NO":999,"REV_AT_EPOCH":15139,"BSTAR":0.00063583858,"MEAN_MOTION_DOT":0.0001733,"MEAN_MOTION_DDOT":0},{"OBJECT_NAME":"STARLINK-32657","OBJECT_ID":"2024-254P","EPOCH":"2026-03-09T05:22:12.579744","MEAN_MOTION":15.27562695,"ECCENTRICITY":0.0001536,"INCLINATION":43.0009,"RA_OF_ASC_NODE":22.3035,"ARG_OF_PERICENTER":254.2354,"MEAN_ANOMALY":105.8328,"EPHEMERIS_TYPE":0,"CLASSIFICATION_TYPE":"U","NORAD_CAT_ID":62475,"ELEMENT_SET_NO":999,"REV_AT_EPOCH":6739,"BSTAR":0.00093504299,"MEAN_MOTION_DOT":0.00025544,"MEAN_MOTION_DDOT":0}]
